{
    "links": {
        "self": "http://www.neowsapp.com/rest/v1/neo/3695648?api_key=iIulBulltgU6a56xZRHN4H3l9WmuAYTsLGpBGhQ2"
    },
    "id": "3695648",
    "neo_reference_id": "3695648",
    "name": "(2014 UB192)",
    "designation": "2014 UB192",
    "nasa_jpl_url": "http://ssd.jpl.nasa.gov/sbdb.cgi?sstr=3695648",
    "absolute_magnitude_h": 22.7,
    "estimated_diameter": {
        "kilometers": {
            "estimated_diameter_min": 0.0766575574,
            "estimated_diameter_max": 0.1714115092
        },
        "meters": {
            "estimated_diameter_min": 76.6575573531,
            "estimated_diameter_max": 171.4115092306
        },
        "miles": {
            "estimated_diameter_min": 0.0476327831,
            "estimated_diameter_max": 0.1065101409
        },
        "feet": {
            "estimated_diameter_min": 251.5011804664,
            "estimated_diameter_max": 562.3737359442
        }
    },
    "is_potentially_hazardous_asteroid": false,
    "close_approach_data": [
        {
            "close_approach_date": "2014-11-21",
            "close_approach_date_full": "2014-Nov-21 18:50",
            "epoch_date_close_approach": 1416595800000,
            "relative_velocity": {
                "kilometers_per_second": "5.8196550696",
                "kilometers_per_hour": "20950.7582504679",
                "miles_per_hour": "13017.986425131"
            },
            "miss_distance": {
                "astronomical": "0.2299466895",
                "lunar": "89.4492622155",
                "kilometers": "34399534.962751365",
                "miles": "21374879.859504237"
            },
            "orbiting_body": "Earth"
        }
    ],
    "orbital_data": {
        "orbit_id": "13",
        "orbit_determination_date": "2017-04-06 08:37:39",
        "first_observation_date": "2014-10-29",
        "last_observation_date": "2014-11-27",
        "data_arc_in_days": 29,
        "observations_used": 48,
        "orbit_uncertainty": "6",
        "minimum_orbit_intersection": ".23366",
        "jupiter_tisserand_invariant": "3.475",
        "epoch_osculation": "2459000.5",
        "eccentricity": ".4551165284283717",
        "semi_major_axis": "2.240285511058655",
        "inclination": "9.682550145914885",
        "ascending_node_longitude": "57.76459827393922",
        "orbital_period": "1224.767016280153",
        "perihelion_distance": "1.220694546577259",
        "perihelion_argument": "3.529043207983815",
        "aphelion_distance": "3.25987647554005",
        "perihelion_time": "2459431.842942123765",
        "mean_anomaly": "233.2138789659928",
        "mean_motion": ".2939334544568218",
        "equinox": "J2000",
        "orbit_class": {
            "orbit_class_type": "AMO",
            "orbit_class_description": "Near-Earth asteroid orbits similar to that of 1221 Amor",
            "orbit_class_range": "1.017 AU < q (perihelion) < 1.3 AU"
        }
    },
    "is_sentry_object": false
}